TECHSAT 1B (GO-32)      
1 25397U 98043D   26186.46803397  .00000082  00000+0  55820-4 0  9996
2 25397  99.0076 179.6883 0001882 130.3325 229.8018 14.24432096453936
TERRA                   
1 25994U 99068A   26186.59504328  .00000519  00000+0  11457-3 0  9995
2 25994  97.9445 235.4105 0002932 142.1275  18.2573 14.61118865412292
TERRASAR-X              
1 31698U 07026A   26186.50311138  .00000558  00000+0  29782-4 0  9996
2 31698  97.4451 193.9490 0001828  87.3608 272.7836 15.19151661 56007
THEOS                   
1 33396U 08049A   26186.63963295  .00000490  00000+0  24960-3 0  9997
2 33396  98.5556 243.3237 0001118  84.9495 275.1809 14.20137335920583
TANDEM-X                
1 36605U 10030A   26186.50311000  .00000494  00000+0  26699-4 0  9999
2 36605  97.4456 193.9495 0001792  97.5745 262.5693 15.19152794889421
SUOMI NPP               
1 37849U 11061A   26186.59641194  .00000097  00000+0  67039-4 0  9996
2 37849  98.7955 127.3470 0000591 289.1282  70.9830 14.19521299761056
SWOT                    
1 54754U 22173A   26186.49490157  .00000050  00000+0  35365-4 0  9992
2 54754  77.6102  10.5939 0000308  79.6120 280.5066 14.00171772181718
TIANMU-1 03             
1 55973U 23039A   26186.67253060  .00015444  00000+0  29875-3 0  9999
2 55973  97.5245   1.3723 0003346  50.9394 309.2153 15.47841910183695
STRIX-7                 
1 69177U 26112A   26186.20258364  .00007054  00000+0  55051-3 0  9999
2 69177  44.9069  97.8219 0023542 152.0319 208.1823 15.01555222  6588
STRIX-8                 
1 69701U 26146A   26186.12744110  .00008072  00000+0  58111-3 0  9990
2 69701  41.9893  68.8620 0008766 318.4582  41.5578 15.04372169  1264
