{
 "generated_at": "2026-07-06T09:00:32Z",
 "sources": [
  {
   "name": "CelesTrak",
   "url": "https://celestrak.org/NORAD/elements/",
   "license": "frei verfügbar; Attribution. Ursprünglich USSPACECOM/Space-Track."
  },
  {
   "name": "GCAT (J. McDowell, planet4589.org)",
   "url": "https://planet4589.org/space/gcat/",
   "license": "CC-BY 4.0"
  }
 ],
 "satellites": [
  {
   "norad": 69177,
   "name": "STRIX-7",
   "intl": "2026-112A",
   "group": "sar",
   "gcat": {
    "class": "B",
    "category": "IMG-R",
    "owner": "SYNSP",
    "state": "J"
   },
   "omm": {
    "OBJECT_NAME": "STRIX-7",
    "OBJECT_ID": "2026-112A",
    "EPOCH": "2026-07-05T04:51:43.225632",
    "MEAN_MOTION": 15.01555222,
    "ECCENTRICITY": 0.0023542,
    "INCLINATION": 44.9069,
    "RA_OF_ASC_NODE": 97.8219,
    "ARG_OF_PERICENTER": 152.0319,
    "MEAN_ANOMALY": 208.1823,
    "EPHEMERIS_TYPE": 0,
    "CLASSIFICATION_TYPE": "U",
    "NORAD_CAT_ID": 69177,
    "ELEMENT_SET_NO": 999,
    "REV_AT_EPOCH": 658,
    "BSTAR": 0.00055051,
    "MEAN_MOTION_DOT": 0.00007054,
    "MEAN_MOTION_DDOT": 0
   }
  },
  {
   "norad": 69701,
   "name": "STRIX-8",
   "intl": "2026-146A",
   "group": "sar",
   "gcat": {
    "class": "B",
    "category": "IMG-R",
    "owner": "SYNSP",
    "state": "J"
   },
   "omm": {
    "OBJECT_NAME": "STRIX-8",
    "OBJECT_ID": "2026-146A",
    "EPOCH": "2026-07-05T03:03:30.911040",
    "MEAN_MOTION": 15.04372169,
    "ECCENTRICITY": 0.0008767,
    "INCLINATION": 41.9893,
    "RA_OF_ASC_NODE": 68.862,
    "ARG_OF_PERICENTER": 318.4582,
    "MEAN_ANOMALY": 41.5578,
    "EPHEMERIS_TYPE": 0,
    "CLASSIFICATION_TYPE": "U",
    "NORAD_CAT_ID": 69701,
    "ELEMENT_SET_NO": 999,
    "REV_AT_EPOCH": 126,
    "BSTAR": 0.00058111,
    "MEAN_MOTION_DOT": 0.00008072,
    "MEAN_MOTION_DDOT": 0
   }
  },
  {
   "norad": 37849,
   "name": "SUOMI NPP",
   "intl": "2011-061A",
   "group": "weather",
   "gcat": {
    "class": "C",
    "category": "MET",
    "owner": "GSFC/NOAA",
    "state": "US"
   },
   "omm": {
    "OBJECT_NAME": "SUOMI NPP",
    "OBJECT_ID": "2011-061A",
    "EPOCH": "2026-07-05T14:18:49.991616",
    "MEAN_MOTION": 14.19521299,
    "ECCENTRICITY": 0.00005915,
    "INCLINATION": 98.7955,
    "RA_OF_ASC_NODE": 127.347,
    "ARG_OF_PERICENTER": 289.1282,
    "MEAN_ANOMALY": 70.983,
    "EPHEMERIS_TYPE": 0,
    "CLASSIFICATION_TYPE": "U",
    "NORAD_CAT_ID": 37849,
    "ELEMENT_SET_NO": 999,
    "REV_AT_EPOCH": 76105,
    "BSTAR": 0.000067039319,
    "MEAN_MOTION_DOT": 9.7e-7,
    "MEAN_MOTION_DDOT": 0
   }
  },
  {
   "norad": 54754,
   "name": "SWOT",
   "intl": "2022-173A",
   "group": "resource",
   "gcat": {
    "class": "C",
    "category": "EOSCI",
    "owner": "CNES/JPL",
    "state": "F"
   },
   "omm": {
    "OBJECT_NAME": "SWOT",
    "OBJECT_ID": "2022-173A",
    "EPOCH": "2026-07-05T11:52:39.494784",
    "MEAN_MOTION": 14.00171772,
    "ECCENTRICITY": 0.0000308,
    "INCLINATION": 77.6102,
    "RA_OF_ASC_NODE": 10.5939,
    "ARG_OF_PERICENTER": 79.612,
    "MEAN_ANOMALY": 280.5066,
    "EPHEMERIS_TYPE": 0,
    "CLASSIFICATION_TYPE": "U",
    "NORAD_CAT_ID": 54754,
    "ELEMENT_SET_NO": 999,
    "REV_AT_EPOCH": 18171,
    "BSTAR": 0.000035365,
    "MEAN_MOTION_DOT": 5e-7,
    "MEAN_MOTION_DDOT": 0
   }
  },
  {
   "norad": 36605,
   "name": "TANDEM-X",
   "intl": "2010-030A",
   "group": "resource",
   "gcat": {
    "class": null,
    "category": "IMG-R",
    "owner": "DLR2/EASF",
    "state": "D"
   },
   "omm": {
    "OBJECT_NAME": "TANDEM-X",
    "OBJECT_ID": "2010-030A",
    "EPOCH": "2026-07-05T12:04:28.704000",
    "MEAN_MOTION": 15.19152794,
    "ECCENTRICITY": 0.00017926,
    "INCLINATION": 97.4456,
    "RA_OF_ASC_NODE": 193.9495,
    "ARG_OF_PERICENTER": 97.5745,
    "MEAN_ANOMALY": 262.5693,
    "EPHEMERIS_TYPE": 0,
    "CLASSIFICATION_TYPE": "U",
    "NORAD_CAT_ID": 36605,
    "ELEMENT_SET_NO": 999,
    "REV_AT_EPOCH": 88942,
    "BSTAR": 0.000026698925,
    "MEAN_MOTION_DOT": 0.00000494,
    "MEAN_MOTION_DDOT": 0
   }
  },
  {
   "norad": 25397,
   "name": "TECHSAT 1B (GO-32)",
   "intl": "1998-043D",
   "group": "resource",
   "gcat": {
    "class": "A",
    "category": "COM",
    "owner": "TECN",
    "state": "IL"
   },
   "omm": {
    "OBJECT_NAME": "TECHSAT 1B (GO-32)",
    "OBJECT_ID": "1998-043D",
    "EPOCH": "2026-07-05T11:13:58.135008",
    "MEAN_MOTION": 14.24432096,
    "ECCENTRICITY": 0.0001883,
    "INCLINATION": 99.0076,
    "RA_OF_ASC_NODE": 179.6883,
    "ARG_OF_PERICENTER": 130.3325,
    "MEAN_ANOMALY": 229.8018,
    "EPHEMERIS_TYPE": 0,
    "CLASSIFICATION_TYPE": "U",
    "NORAD_CAT_ID": 25397,
    "ELEMENT_SET_NO": 999,
    "REV_AT_EPOCH": 45393,
    "BSTAR": 0.00005582,
    "MEAN_MOTION_DOT": 8.2e-7,
    "MEAN_MOTION_DDOT": 0
   }
  },
  {
   "norad": 25994,
   "name": "TERRA",
   "intl": "1999-068A",
   "group": "resource",
   "gcat": {
    "class": "C",
    "category": "IMG",
    "owner": "GSFC",
    "state": "US"
   },
   "omm": {
    "OBJECT_NAME": "TERRA",
    "OBJECT_ID": "1999-068A",
    "EPOCH": "2026-07-05T14:16:51.739392",
    "MEAN_MOTION": 14.61118865,
    "ECCENTRICITY": 0.00029321,
    "INCLINATION": 97.9445,
    "RA_OF_ASC_NODE": 235.4105,
    "ARG_OF_PERICENTER": 142.1275,
    "MEAN_ANOMALY": 18.2573,
    "EPHEMERIS_TYPE": 0,
    "CLASSIFICATION_TYPE": "U",
    "NORAD_CAT_ID": 25994,
    "ELEMENT_SET_NO": 999,
    "REV_AT_EPOCH": 41229,
    "BSTAR": 0.00011456697,
    "MEAN_MOTION_DOT": 0.00000519,
    "MEAN_MOTION_DDOT": 0
   }
  },
  {
   "norad": 31698,
   "name": "TERRASAR-X",
   "intl": "2007-026A",
   "group": "resource",
   "gcat": {
    "class": null,
    "category": "IMG-R",
    "owner": "DLR2/EASF",
    "state": "D"
   },
   "omm": {
    "OBJECT_NAME": "TERRASAR-X",
    "OBJECT_ID": "2007-026A",
    "EPOCH": "2026-07-05T12:04:28.823232",
    "MEAN_MOTION": 15.19151661,
    "ECCENTRICITY": 0.0001828,
    "INCLINATION": 97.4451,
    "RA_OF_ASC_NODE": 193.949,
    "ARG_OF_PERICENTER": 87.3608,
    "MEAN_ANOMALY": 272.7836,
    "EPHEMERIS_TYPE": 0,
    "CLASSIFICATION_TYPE": "U",
    "NORAD_CAT_ID": 31698,
    "ELEMENT_SET_NO": 999,
    "REV_AT_EPOCH": 5600,
    "BSTAR": 0.000029782082,
    "MEAN_MOTION_DOT": 0.00000558,
    "MEAN_MOTION_DDOT": 0
   }
  },
  {
   "norad": 33396,
   "name": "THEOS",
   "intl": "2008-049A",
   "group": "resource",
   "gcat": {
    "class": "C",
    "category": "IMG",
    "owner": "GISTDA",
    "state": "T"
   },
   "omm": {
    "OBJECT_NAME": "THEOS",
    "OBJECT_ID": "2008-049A",
    "EPOCH": "2026-07-05T15:21:04.286880",
    "MEAN_MOTION": 14.20137335,
    "ECCENTRICITY": 0.00011189,
    "INCLINATION": 98.5556,
    "RA_OF_ASC_NODE": 243.3237,
    "ARG_OF_PERICENTER": 84.9495,
    "MEAN_ANOMALY": 275.1809,
    "EPHEMERIS_TYPE": 0,
    "CLASSIFICATION_TYPE": "U",
    "NORAD_CAT_ID": 33396,
    "ELEMENT_SET_NO": 999,
    "REV_AT_EPOCH": 92058,
    "BSTAR": 0.00024959997,
    "MEAN_MOTION_DOT": 0.0000049,
    "MEAN_MOTION_DDOT": 0
   }
  },
  {
   "norad": 55973,
   "name": "TIANMU-1 03",
   "intl": "2023-039A",
   "group": "weather",
   "gcat": {
    "class": "B",
    "category": "MET",
    "owner": "TIANMU",
    "state": "CN"
   },
   "omm": {
    "OBJECT_NAME": "TIANMU-1 03",
    "OBJECT_ID": "2023-039A",
    "EPOCH": "2026-07-05T16:08:26.643840",
    "MEAN_MOTION": 15.4784191,
    "ECCENTRICITY": 0.00033469,
    "INCLINATION": 97.5245,
    "RA_OF_ASC_NODE": 1.3723,
    "ARG_OF_PERICENTER": 50.9394,
    "MEAN_ANOMALY": 309.2153,
    "EPHEMERIS_TYPE": 0,
    "CLASSIFICATION_TYPE": "U",
    "NORAD_CAT_ID": 55973,
    "ELEMENT_SET_NO": 999,
    "REV_AT_EPOCH": 18369,
    "BSTAR": 0.00029874884,
    "MEAN_MOTION_DOT": 0.00015444,
    "MEAN_MOTION_DDOT": 0
   }
  }
 ]
}
